ORBCOMM FM103           
1 40091U 14040F   25148.38398742  .00000572  00000+0  15938-3 0  9999
2 40091  47.0046 111.3236 0001836 218.5905 141.4849 14.58142305561211
ORBCOMM FM114           
1 41179U 15081A   25147.99502522  .00000455  00000+0  13423-3 0  9999
2 41179  47.0044  22.2198 0002542 260.2765  99.7834 14.58183482501525
ORBCOMM FM119           
1 41180U 15081B   25148.73585022  .00000585  00000+0  16236-3 0  9999
2 41180  47.0008 288.0274 0001490 294.4146  65.6584 14.58118831502887
ORBCOMM FM105           
1 41181U 15081C   25148.38021831  .00000240  00000+0  11258-3 0  9991
2 41181  47.0019 292.7303 0002336 236.0101 124.0557 14.45207504497883
ORBCOMM FM110           
1 41182U 15081D   25147.90745713  .00000790  00000+0  20704-3 0  9997
2 41182  47.0035  22.0549 0001183  74.4955 285.6061 14.57990262501386
ORBCOMM FM118           
1 41183U 15081E   25148.36555880  .00000853  00000+0  21880-3 0  9999
2 41183  47.0057  20.2887 0003665  54.3643 305.7584 14.58393613501555
ORBCOMM FM112           
1 41184U 15081F   25148.84914589  .00000587  00000+0  16272-3 0  9991
2 41184  46.9994 286.6450 0001889 258.1215 101.9458 14.58140836502894
ORBCOMM FM113           
1 41185U 15081G   25148.41481611  .00000711  00000+0  18927-3 0  9998
2 41185  47.0012 289.0180 0001718 269.4538  90.6150 14.58148385502765
